{"type": "FeatureCollection", "features": [ {"type": "Feature", "properties": {"norad_id": 38068, "name": "COSMOS 2251 DEB", "group": "cosmos-2251-debris", "lat": -72.83664090014646, "lon": -122.71880121408707, "alt_km": 786.7209922324228, "timestamp": "2025-12-14T07:33:19.877430+00:00", "meta": {"OBJECT_NAME": "COSMOS 2251 DEB", "OBJECT_ID": "1993-036BSA", "EPOCH": "2025-11-26T00:12:22.263264", "MEAN_MOTION": 14.35960004, "ECCENTRICITY": 0.00240903, "INCLINATION": 74.0219, "RA_OF_ASC_NODE": 338.9788, "ARG_OF_PERICENTER": 72.1007, "MEAN_ANOMALY": 288.2769, "EPHEMERIS_TYPE": 0, "CLASSIFICATION_TYPE": "U", "NORAD_CAT_ID": 38068, "ELEMENT_SET_NO": 999, "REV_AT_EPOCH": 66406, "BSTAR": 0.00028750999, "MEAN_MOTION_DOT": 8.11e-06, "MEAN_MOTION_DDOT": 0}, "tle": {"line1": "1 38068U 93036BSA 25330.00859101  .00000811  00000+0  28751-3 0  9998", "line2": "2 38068  74.0219 338.9788 0024090  72.1007 288.2769 14.35960004664064"}}, "geometry": {"type": "Point", "coordinates": [-122.71880121408707, -72.83664090014646]}}, {"type": "Feature", "properties": {"norad_id": 38197, "name": "COSMOS 2251 DEB", "group": "cosmos-2251-debris", "lat": 56.07177632196624, "lon": 148.60093006201353, "alt_km": 672.4536434036381, "timestamp": "2025-12-14T07:33:19.877440+00:00", "meta": {"OBJECT_NAME": "COSMOS 2251 DEB", "OBJECT_ID": "1993-036BSM", "EPOCH": "2025-12-13T06:34:10.537248", "MEAN_MOTION": 14.74086411, "ECCENTRICITY": 0.01258373, "INCLINATION": 73.9395, "RA_OF_ASC_NODE": 356.0012, "ARG_OF_PERICENTER": 233.3614, "MEAN_ANOMALY": 125.5937, "EPHEMERIS_TYPE": 0, "CLASSIFICATION_TYPE": "U", "NORAD_CAT_ID": 38197, "ELEMENT_SET_NO": 999, "REV_AT_EPOCH": 85763, "BSTAR": 0.006992667, "MEAN_MOTION_DOT": 0.00052653, "MEAN_MOTION_DDOT": 0}, "tle": {"line1": "1 38197U 93036BSM 25347.27373307  .00052653  00000+0  69927-2 0  9997", "line2": "2 38197  73.9395 356.0012 0125837 233.3614 125.5937 14.74086411857638"}}, "geometry": {"type": "Point", "coordinates": [148.60093006201353, 56.07177632196624]}}, {"type": "Feature", "properties": {"norad_id": 38199, "name": "COSMOS 2251 DEB", "group": "cosmos-2251-debris", "lat": 13.350110583685094, "lon": 63.51973816096614, "alt_km": 775.9143477625266, "timestamp": "2025-12-14T07:33:19.877450+00:00", "meta": {"OBJECT_NAME": "COSMOS 2251 DEB", "OBJECT_ID": "1993-036BSP", "EPOCH": "2025-12-09T13:08:57.601824", "MEAN_MOTION": 13.64788419, "ECCENTRICITY": 0.0369499, "INCLINATION": 73.956, "RA_OF_ASC_NODE": 67.4327, "ARG_OF_PERICENTER": 354.5631, "MEAN_ANOMALY": 5.1515, "EPHEMERIS_TYPE": 0, "CLASSIFICATION_TYPE": "U", "NORAD_CAT_ID": 38199, "ELEMENT_SET_NO": 999, "REV_AT_EPOCH": 60978, "BSTAR": 0.00073909, "MEAN_MOTION_DOT": 9.26e-06, "MEAN_MOTION_DDOT": 0}, "tle": {"line1": "1 38199U 93036BSP 25343.54788891  .00000926  00000+0  73909-3 0  9995", "line2": "2 38199  73.9560  67.4327 0369499 354.5631   5.1515 13.64788419609786"}}, "geometry": {"type": "Point", "coordinates": [63.51973816096614, 13.350110583685094]}}, {"type": "Feature", "properties": {"norad_id": 38208, "name": "COSMOS 2251 DEB", "group": "cosmos-2251-debris", "lat": 50.46300134653316, "lon": -124.5520681662858, "alt_km": 610.5624775593787, "timestamp": "2025-12-14T07:33:19.877461+00:00", "meta": {"OBJECT_NAME": "COSMOS 2251 DEB", "OBJECT_ID": "1993-036BSY", "EPOCH": "2025-12-13T17:06:55.631232", "MEAN_MOTION": 14.83950363, "ECCENTRICITY": 0.00020433, "INCLINATION": 74.0053, "RA_OF_ASC_NODE": 76.977, "ARG_OF_PERICENTER": 155.4201, "MEAN_ANOMALY": 358.2431, "EPHEMERIS_TYPE": 0, "CLASSIFICATION_TYPE": "U", "NORAD_CAT_ID": 38208, "ELEMENT_SET_NO": 999, "REV_AT_EPOCH": 71173, "BSTAR": 0.0025143391, "MEAN_MOTION_DOT": 0.00020943, "MEAN_MOTION_DDOT": 0}, "tle": {"line1": "1 38208U 93036BSY 25347.71314388  .00020943  00000+0  25143-2 0  9992", "line2": "2 38208  74.0053  76.9770 0002043 155.4201 358.2431 14.83950363711732"}}, "geometry": {"type": "Point", "coordinates": [-124.5520681662858, 50.46300134653316]}}, {"type": "Feature", "properties": {"norad_id": 38212, "name": "COSMOS 2251 DEB", "group": "cosmos-2251-debris", "lat": 38.683276128434585, "lon": 86.747491021993, "alt_km": 643.4235023201772, "timestamp": "2025-12-14T07:33:19.877471+00:00", "meta": {"OBJECT_NAME": "COSMOS 2251 DEB", "OBJECT_ID": "1993-036BTC", "EPOCH": "2025-12-12T16:22:29.483616", "MEAN_MOTION": 14.7768615, "ECCENTRICITY": 0.00924054, "INCLINATION": 74.0522, "RA_OF_ASC_NODE": 76.7119, "ARG_OF_PERICENTER": 143.7275, "MEAN_ANOMALY": 217.0214, "EPHEMERIS_TYPE": 0, "CLASSIFICATION_TYPE": "U", "NORAD_CAT_ID": 38212, "ELEMENT_SET_NO": 999, "REV_AT_EPOCH": 81309, "BSTAR": 0.00069160786, "MEAN_MOTION_DOT": 5.288e-05, "MEAN_MOTION_DDOT": 0}, "tle": {"line1": "1 38212U 93036BTC 25346.68228569  .00005288  00000+0  69161-3 0  9991", "line2": "2 38212  74.0522  76.7119 0092405 143.7275 217.0214 14.77686150813091"}}, "geometry": {"type": "Point", "coordinates": [86.747491021993, 38.683276128434585]}}, {"type": "Feature", "properties": {"norad_id": 38220, "name": "COSMOS 2251 DEB", "group": "cosmos-2251-debris", "lat": -72.52487043434314, "lon": -0.46333796784253345, "alt_km": 597.1964992635458, "timestamp": "2025-12-14T07:33:19.877481+00:00", "meta": {"OBJECT_NAME": "COSMOS 2251 DEB", "OBJECT_ID": "1993-036BTL", "EPOCH": "2025-12-11T22:01:48.758016", "MEAN_MOTION": 14.92850575, "ECCENTRICITY": 0.0004483, "INCLINATION": 74.014, "RA_OF_ASC_NODE": 69.9473, "ARG_OF_PERICENTER": 50.1596, "MEAN_ANOMALY": 309.9981, "EPHEMERIS_TYPE": 0, "CLASSIFICATION_TYPE": "U", "NORAD_CAT_ID": 38220, "ELEMENT_SET_NO": 999, "REV_AT_EPOCH": 71358, "BSTAR": 0.0045219, "MEAN_MOTION_DOT": 0.00047133, "MEAN_MOTION_DDOT": 0}, "tle": {"line1": "1 38220U 93036BTL 25345.91792544  .00047133  00000+0  45219-2 0  9996", "line2": "2 38220  74.0140  69.9473 0004483  50.1596 309.9981 14.92850575713585"}}, "geometry": {"type": "Point", "coordinates": [-0.46333796784253345, -72.52487043434314]}}, {"type": "Feature", "properties": {"norad_id": 38479, "name": "COSMOS 2251 DEB", "group": "cosmos-2251-debris", "lat": 72.64403298386198, "lon": -65.21291220682703, "alt_km": 815.1933840219081, "timestamp": "2025-12-14T07:33:19.877503+00:00", "meta": {"OBJECT_NAME": "COSMOS 2251 DEB", "OBJECT_ID": "1993-036BTP", "EPOCH": "2025-12-12T20:09:01.936800", "MEAN_MOTION": 14.38299124, "ECCENTRICITY": 0.00841582, "INCLINATION": 74.0067, "RA_OF_ASC_NODE": 184.0967, "ARG_OF_PERICENTER": 293.0928, "MEAN_ANOMALY": 88.0441, "EPHEMERIS_TYPE": 0, "CLASSIFICATION_TYPE": "U", "NORAD_CAT_ID": 38479, "ELEMENT_SET_NO": 999, "REV_AT_EPOCH": 64689, "BSTAR": 0.0026120465, "MEAN_MOTION_DOT": 8.264e-05, "MEAN_MOTION_DDOT": 0}, "tle": {"line1": "1 38479U 93036BTP 25346.83960575  .00008264  00000+0  26120-2 0  9997", "line2": "2 38479  74.0067 184.0967 0084158 293.0928  88.0441 14.38299124646892"}}, "geometry": {"type": "Point", "coordinates": [-65.21291220682703, 72.64403298386198]}}, {"type": "Feature", "properties": {"norad_id": 38481, "name": "COSMOS 2251 DEB", "group": "cosmos-2251-debris", "lat": 60.700546474035875, "lon": 153.9354791963833, "alt_km": 1073.6579324636668, "timestamp": "2025-12-14T07:33:19.877514+00:00", "meta": {"OBJECT_NAME": "COSMOS 2251 DEB", "OBJECT_ID": "1993-036BTR", "EPOCH": "2025-12-11T08:25:34.899168", "MEAN_MOTION": 13.94814903, "ECCENTRICITY": 0.02344672, "INCLINATION": 73.9331, "RA_OF_ASC_NODE": 9.956, "ARG_OF_PERICENTER": 310.478, "MEAN_ANOMALY": 47.6118, "EPHEMERIS_TYPE": 0, "CLASSIFICATION_TYPE": "U", "NORAD_CAT_ID": 38481, "ELEMENT_SET_NO": 999, "REV_AT_EPOCH": 59041, "BSTAR": 0.0026201501, "MEAN_MOTION_DOT": 4.395e-05, "MEAN_MOTION_DDOT": 0}, "tle": {"line1": "1 38481U 93036BTR 25345.35109837  .00004395  00000+0  26202-2 0  9994", "line2": "2 38481  73.9331   9.9560 0234467 310.4780  47.6118 13.94814903590418"}}, "geometry": {"type": "Point", "coordinates": [153.9354791963833, 60.700546474035875]}}, {"type": "Feature", "properties": {"norad_id": 38483, "name": "COSMOS 2251 DEB", "group": "cosmos-2251-debris", "lat": 45.588777234065525, "lon": 25.656710084838156, "alt_km": 758.2764154510396, "timestamp": "2025-12-14T07:33:19.877524+00:00", "meta": {"OBJECT_NAME": "COSMOS 2251 DEB", "OBJECT_ID": "1993-036BTT", "EPOCH": "2025-12-12T08:16:48.530496", "MEAN_MOTION": 14.28787654, "ECCENTRICITY": 0.01107994, "INCLINATION": 74.262, "RA_OF_ASC_NODE": 12.4521, "ARG_OF_PERICENTER": 118.0167, "MEAN_ANOMALY": 243.2246, "EPHEMERIS_TYPE": 0, "CLASSIFICATION_TYPE": "U", "NORAD_CAT_ID": 38483, "ELEMENT_SET_NO": 999, "REV_AT_EPOCH": 63472, "BSTAR": 0.0012977102, "MEAN_MOTION_DOT": 3.471e-05, "MEAN_MOTION_DDOT": 0}, "tle": {"line1": "1 38483U 93036BTT 25346.34500614  .00003471  00000+0  12977-2 0  9992", "line2": "2 38483  74.2620  12.4521 0110799 118.0167 243.2246 14.28787654634722"}}, "geometry": {"type": "Point", "coordinates": [25.656710084838156, 45.588777234065525]}}, {"type": "Feature", "properties": {"norad_id": 38486, "name": "COSMOS 2251 DEB", "group": "cosmos-2251-debris", "lat": -70.02691940911676, "lon": 149.3480425391344, "alt_km": 647.7860811870887, "timestamp": "2025-12-14T07:33:19.877535+00:00", "meta": {"OBJECT_NAME": "COSMOS 2251 DEB", "OBJECT_ID": "1993-036BTW", "EPOCH": "2025-12-11T09:00:08.342784", "MEAN_MOTION": 14.73192637, "ECCENTRICITY": 0.00301862, "INCLINATION": 73.9417, "RA_OF_ASC_NODE": 207.5314, "ARG_OF_PERICENTER": 352.193, "MEAN_ANOMALY": 184.8713, "EPHEMERIS_TYPE": 0, "CLASSIFICATION_TYPE": "U", "NORAD_CAT_ID": 38486, "ELEMENT_SET_NO": 999, "REV_AT_EPOCH": 75414, "BSTAR": 0.0047751445, "MEAN_MOTION_DOT": 0.00031144, "MEAN_MOTION_DDOT": 0}, "tle": {"line1": "1 38486U 93036BTW 25345.37509656  .00031144  00000+0  47751-2 0  9998", "line2": "2 38486  73.9417 207.5314 0030186 352.1930 184.8713 14.73192637754141"}}, "geometry": {"type": "Point", "coordinates": [149.3480425391344, -70.02691940911676]}}]}